[ {"name": "STARLINK-11416 [DTC]", "line1": "1 62594U 25008H   26156.16670139  .00197899  00000+0  74115-3 0  9997", "line2": "2 62594  42.9900 314.3135 0012402 310.2921 359.5815 15.86452750  6048"}, {"name": "STARLINK-11535 [DTC]", "line1": "1 62595U 25008J   26155.76723139  .00140652  00000+0  10798-2 0  9993", "line2": "2 62595  42.9995 320.8920 0002875 210.5040 149.5660 15.70868229 80833"}, {"name": "STARLINK-11521 [DTC]", "line1": "1 62597U 25008L   26155.71958478  .00153778  00000+0  11791-2 0  9993", "line2": "2 62597  42.9999 321.4120 0002226 295.0526  65.0110 15.70854598 80976"}, {"name": "STARLINK-11258 [DTC]", "line1": "1 62598U 25008M   26156.16670139 -.00072681  00000+0 -56713-3 0  9998", "line2": "2 62598  43.0000 318.7879 0001647 268.7625  72.7671 15.70870597  5976"}, {"name": "STARLINK-11529 [DTC]", "line1": "1 62599U 25008N   26156.17528086  .00269195  00000+0  20224-2 0  9996", "line2": "2 62599  43.0004 318.8071 0002996 271.1681  88.8843 15.70977360 81052"}, {"name": "STARLINK-32747", "line1": "1 62600U 25008P   26152.40424592  .00014738  00000+0  54370-3 0  9999", "line2": "2 62600  43.0017 165.4794 0001895 282.7918  77.2722 15.27598362 78366"}, {"name": "STARLINK-32767", "line1": "1 62601U 25008Q   26154.13370091  .00028373  00000+0  10352-2 0  9997", "line2": "2 62601  43.0001 155.2296 0001461 246.0785 113.9913 15.27625917 78691"}, {"name": "STARLINK-32769", "line1": "1 62602U 25008R   26154.46448991  .00019124  00000+0  70190-3 0  9990", "line2": "2 62602  42.9994 153.4088 0001070 283.5084  76.5649 15.27615362 78743"}, {"name": "STARLINK-32778", "line1": "1 62603U 25008S   26156.07745351  .00028618  00000+0  10425-2 0  9992", "line2": "2 62603  43.0008 144.8874 0002821 172.9481 187.1411 15.27670632 78923"}, {"name": "STARLINK-32710", "line1": "1 62604U 25008T   26154.44649308  .00025028  00000+0  91460-3 0  9998", "line2": "2 62604  43.0001 153.2772 0002382 240.8712 119.1901 15.27626666 78682"}, {"name": "STARLINK-32742", "line1": "1 62605U 25008U   26156.08503252  .00018219  00000+0  66890-3 0  9991", "line2": "2 62605  43.0027 144.0790 0001418 275.8119  84.2571 15.27631087 78988"}, {"name": "STARLINK-32783", "line1": "1 62606U 25008V   26156.10300733  .00018663  00000+0  68478-3 0  9991", "line2": "2 62606  42.9983 144.2133 0000886 287.7431  72.3323 15.27638102 78931"}, {"name": "STARLINK-32784", "line1": "1 62607U 25008W   26155.89524650  .00125536  00000+0  24897-2 0  9997", "line2": "2 62607  42.9920 135.6673 0015921 131.9997 228.2219 15.45736097 79073"}, {"name": "STARLINK-32806", "line1": "1 62735U 25014A   26154.53125589  .00020298  00000+0  74418-3 0  9998", "line2": "2 62735  43.0001  29.7866 0002240 246.9959 113.0656 15.27619379 76389"}, {"name": "STARLINK-32329", "line1": "1 62736U 25014B   26155.75433015  .00019367  00000+0  71093-3 0  9991", "line2": "2 62736  43.0031  22.6195 0001433 251.6868 108.3828 15.27604717 76574"}, {"name": "STARLINK-32774", "line1": "1 62737U 25014C   26152.93067350  .00020700  00000+0  75983-3 0  9999", "line2": "2 62737  43.0054  41.8730 0001807 267.8433  92.2212 15.27570618 76109"}, {"name": "STARLINK-32802", "line1": "1 62738U 25014D   26152.92214005  .00020621  00000+0  75667-3 0  9991", "line2": "2 62738  43.0018  38.3423 0001814 243.2244 116.8423 15.27583741 76148"}, {"name": "STARLINK-32796", "line1": "1 62739U 25014E   26156.16670139  .00031505  00000+0  11500-2 0  9994", "line2": "2 62739  43.0016  19.9895 0001441 274.7511 323.1046 15.27566474  5798"}, {"name": "STARLINK-32805", "line1": "1 62740U 25014F   26154.93899809  .00024968  00000+0  91244-3 0  9995", "line2": "2 62740  43.0012  27.6898 0003858 331.8741  28.1902 15.27622920 76441"}, {"name": "STARLINK-32770", "line1": "1 62741U 25014G   26155.74404253  .00021088  00000+0  77372-3 0  9997", "line2": "2 62741  43.0020  22.5480 0001457 255.8580 104.2110 15.27577033 76576"}, {"name": "STARLINK-32775", "line1": "1 62742U 25014H   26155.95177067  .00020802  00000+0  76258-3 0  9996", "line2": "2 62742  43.0048  21.5250 0001664 299.7850  60.2836 15.27611435 76603"}, {"name": "STARLINK-32800", "line1": "1 62743U 25014J   26155.66113471  .00025555  00000+0  93314-3 0  9996", "line2": "2 62743  43.0004  30.5740 0002594 293.5768  66.4811 15.27642563 76475"}, {"name": "STARLINK-32758", "line1": "1 62744U 25014K   26156.16670139  .00045452  00000+0  16524-2 0  9997", "line2": "2 62744  43.0031  23.7679 0001542 267.2190 198.8913 15.27553481  5857"}, {"name": "STARLINK-32746", "line1": "1 62745U 25014L   26156.05426742  .00019365  00000+0  71090-3 0  9999", "line2": "2 62745  43.0024  20.5694 0001385 266.3431  93.7262 15.27602032 76625"}, {"name": "STARLINK-32780", "line1": "1 62746U 25014M   26155.85311517  .00021811  00000+0  79958-3 0  9990", "line2": "2 62746  43.0006  22.5054 0000899 259.0618 101.0133 15.27588609 76581"}, {"name": "STARLINK-32765", "line1": "1 62747U 25014N   26153.80429085  .00028935  00000+0  10556-2 0  9996", "line2": "2 62747  43.0040  33.7818 0002173 242.1041 117.9590 15.27619022 76275"}, {"name": "STARLINK-32762", "line1": "1 62748U 25014P   26155.74484317  .00035070  00000+0  12778-2 0  9997", "line2": "2 62748  43.0008  26.0092 0001621 236.3754 123.6943 15.27581388 76530"}, {"name": "STARLINK-32761", "line1": "1 62749U 25014Q   26155.87818612  .00034196  00000+0  12462-2 0  9999", "line2": "2 62749  43.0022  25.2930 0001248 266.1999  93.8710 15.27586636 76559"}, {"name": "STARLINK-32763", "line1": "1 62750U 25014R   26152.92985493  .00030868  00000+0  11268-2 0  9991", "line2": "2 62750  43.0039  38.3997 0001265 261.1433  98.9276 15.27571569 76141"}, {"name": "STARLINK-32759", "line1": "1 62751U 25014S   26152.11788554  .00023334  00000+0  85422-3 0  9996", "line2": "2 62751  42.9994  46.9538 0002110 251.5693 108.4929 15.27601358 75979"}]