OBJECT_NAME,OBJECT_ID,EPOCH,MEAN_MOTION,ECCENTRICITY,INCLINATION,RA_OF_ASC_NODE,ARG_OF_PERICENTER,MEAN_ANOMALY,EPHEMERIS_TYPE,CLASSIFICATION_TYPE,NORAD_CAT_ID,ELEMENT_SET_NO,REV_AT_EPOCH,BSTAR,MEAN_MOTION_DOT,MEAN_MOTION_DDOT
STARLINK-11416 [DTC],2025-008H,2026-06-05T04:00:03.000096,15.86452750,.0012402,42.9900,314.3135,310.2921,359.5815,0,U,62594,999,604,.74115E-3,.197899E-2,0
STARLINK-11535 [DTC],2025-008J,2026-06-04T18:24:48.792096,15.70868229,.0002875,42.9995,320.8920,210.5040,149.5660,0,U,62595,999,8083,.10798E-2,.140652E-2,0
STARLINK-11521 [DTC],2025-008L,2026-06-04T17:16:12.124992,15.70854598,.00022263,42.9999,321.4120,295.0526,65.0110,0,U,62597,999,8097,.11791105E-2,.153778E-2,0
STARLINK-11258 [DTC],2025-008M,2026-06-05T04:00:03.000096,15.70870597,.0001647,43.0000,318.7879,268.7625,72.7671,0,U,62598,999,597,-.56713E-3,-.72681E-3,0
STARLINK-11529 [DTC],2025-008N,2026-06-05T04:12:24.266304,15.70977360,.0002996,43.0004,318.8071,271.1681,88.8843,0,U,62599,999,8105,.20224E-2,.269195E-2,0
STARLINK-32747,2025-008P,2026-06-01T09:42:06.847488,15.27598362,.0001895,43.0017,165.4794,282.7918,77.2722,0,U,62600,999,7836,.54369675E-3,.14738E-3,0
STARLINK-32767,2025-008Q,2026-06-03T03:12:31.758624,15.27625917,.00014619,43.0001,155.2296,246.0785,113.9913,0,U,62601,999,7869,.10351679E-2,.28373E-3,0
STARLINK-32769,2025-008R,2026-06-03T11:08:51.928224,15.27615362,.00010708,42.9994,153.4088,283.5084,76.5649,0,U,62602,999,7874,.7018981E-3,.19124E-3,0
STARLINK-32778,2025-008S,2026-06-05T01:51:31.983264,15.27670632,.0002821,43.0008,144.8874,172.9481,187.1411,0,U,62603,999,7892,.10425E-2,.28618E-3,0
STARLINK-32710,2025-008T,2026-06-03T10:42:57.002112,15.27626666,.00023822,43.0001,153.2772,240.8712,119.1901,0,U,62604,999,7868,.91460081E-3,.25028E-3,0
STARLINK-32742,2025-008U,2026-06-05T02:02:26.809728,15.27631087,.0001418,43.0027,144.0790,275.8119,84.2571,0,U,62605,999,7898,.6689E-3,.18219E-3,0
STARLINK-32783,2025-008V,2026-06-05T02:28:19.833312,15.27638102,.0000886,42.9983,144.2133,287.7431,72.3323,0,U,62606,999,7893,.68478E-3,.18663E-3,0
STARLINK-32784,2025-008W,2026-06-04T21:29:09.297600,15.45736097,.0015921,42.9920,135.6673,131.9997,228.2219,0,U,62607,999,7907,.24897E-2,.125536E-2,0
STARLINK-32806,2025-014A,2026-06-03T12:45:00.508896,15.27619379,.00022401,43.0001,29.7866,246.9959,113.0656,0,U,62735,999,7638,.74418036E-3,.20298E-3,0
STARLINK-32329,2025-014B,2026-06-04T18:06:14.124960,15.27604717,.00014338,43.0031,22.6195,251.6868,108.3828,0,U,62736,999,7657,.71093288E-3,.19367E-3,0
STARLINK-32774,2025-014C,2026-06-01T22:20:10.190400,15.27570618,.00018079,43.0054,41.8730,267.8433,92.2212,0,U,62737,999,7610,.75983166E-3,.207E-3,0
STARLINK-32802,2025-014D,2026-06-01T22:07:52.900320,15.27583741,.0001814,43.0018,38.3423,243.2244,116.8423,0,U,62738,999,7614,.75666855E-3,.20621E-3,0
STARLINK-32796,2025-014E,2026-06-05T04:00:03.000096,15.27566474,.0001441,43.0016,19.9895,274.7511,323.1046,0,U,62739,999,579,.115E-2,.31505E-3,0
STARLINK-32805,2025-014F,2026-06-03T22:32:09.434976,15.27622920,.0003858,43.0012,27.6898,331.8741,28.1902,0,U,62740,999,7644,.91244E-3,.24968E-3,0
STARLINK-32770,2025-014G,2026-06-04T17:51:25.274592,15.27577033,.00014573,43.0020,22.5480,255.8580,104.2110,0,U,62741,999,7657,.77372136E-3,.21088E-3,0
STARLINK-32775,2025-014H,2026-06-04T22:50:32.985888,15.27611435,.0001664,43.0048,21.5250,299.7850,60.2836,0,U,62742,999,7660,.76258E-3,.20802E-3,0
STARLINK-32800,2025-014J,2026-06-04T15:52:02.038944,15.27642563,.00025949,43.0004,30.5740,293.5768,66.4811,0,U,62743,999,7647,.93314354E-3,.25555E-3,0
STARLINK-32758,2025-014K,2026-06-05T04:00:03.000096,15.27553481,.0001542,43.0031,23.7679,267.2190,198.8913,0,U,62744,999,585,.16524E-2,.45452E-3,0
STARLINK-32746,2025-014L,2026-06-05T01:18:08.705088,15.27602032,.0001385,43.0024,20.5694,266.3431,93.7262,0,U,62745,999,7662,.7109E-3,.19365E-3,0
STARLINK-32780,2025-014M,2026-06-04T20:28:29.150688,15.27588609,.0000899,43.0006,22.5054,259.0618,101.0133,0,U,62746,999,7658,.79958E-3,.21811E-3,0
STARLINK-32765,2025-014N,2026-06-02T19:18:10.729440,15.27619022,.0002173,43.0040,33.7818,242.1041,117.9590,0,U,62747,999,7627,.10555863E-2,.28935E-3,0
STARLINK-32762,2025-014P,2026-06-04T17:52:34.449888,15.27581388,.00016212,43.0008,26.0092,236.3754,123.6943,0,U,62748,999,7653,.12778248E-2,.3507E-3,0
STARLINK-32761,2025-014Q,2026-06-04T21:04:35.280768,15.27586636,.0001248,43.0022,25.2930,266.1999,93.8710,0,U,62749,999,7655,.12462E-2,.34196E-3,0
STARLINK-32763,2025-014R,2026-06-01T22:18:59.465952,15.27571569,.00012655,43.0039,38.3997,261.1433,98.9276,0,U,62750,999,7614,.11268318E-2,.30868E-3,0
STARLINK-32759,2025-014S,2026-06-01T02:49:45.310656,15.27601358,.00021103,42.9994,46.9538,251.5693,108.4929,0,U,62751,999,7597,.85421983E-3,.23334E-3,0
